SL-16 R/B               
1 19120U 88039B   16250.81192140 -.00000139  00000-0 -43384-4 0  9992
2 19120  71.0144 203.6694 0024210 263.3875  96.4494 14.19152652466182
COSMOS 1953             
1 19210U 88050A   16251.21361369  .00000460  00000-0  30410-4 0  9992
2 19210  82.5173 307.6685 0014819 139.9992 220.2329 15.04913451535276
SL-8 R/B                
1 19257U 88053B   16251.49616817  .00000019  00000-0  15219-4 0  9997
2 19257  74.0505  16.2232 0020989 334.6272  92.0953 14.37327293478152
COSMOS 1975             
1 19573U 88093A   16251.45041008  .00000874  00000-0  61377-4 0  9997
2 19573  82.5180 258.9534 0014667 175.3937 184.7427 15.03823378517316
SL-14 R/B               
1 19574U 88093B   16249.93207069  .00000139  00000-0  14044-4 0  9992
2 19574  82.5307  50.8129 0021027 337.6089 183.6271 14.83171434486222
SL-16 R/B               
1 19650U 88102B   16251.45982031  .00000210  00000-0  13135-3 0  9996
2 19650  70.9977 249.5861 0016444 255.5875 104.3423 14.15745725435979
INTERCOSMOS 24          
1 20261U 89080A   16251.19957240  .00000471  00000-0  13389-3 0  9997
2 20261  82.5968 193.2646 1205531  29.3399 337.0188 12.55805008230441
SL-14 R/B               
1 20262U 89080C   16250.57667665  .00000054  00000-0  10573-4 0  9998
2 20262  82.5903 237.7065 1237326 183.0837 176.2085 12.48821563226318
DELTA 1 R/B             
1 20323U 89089B   16250.97252939  .00000084  00000-0  31084-4 0  9996
2 20323  97.0709 236.1632 0070333 251.2171 108.1387 14.48142614413733
DELTA 2 R/B(1)          
1 20453U 90008B   16250.01025753  .00001930  00000-0  11372-3 0  9998
2 20453  35.6260  98.6605 0294153 326.2251  32.0033 14.82039661406008
COSMOS 2058             
1 20465U 90010A   16250.81940663  .00000624  00000-0  51443-4 0  9991
2 20465  82.4923 160.2674 0015938 163.2561 196.9191 14.97282096442939
SL-14 R/B               
1 20466U 90010B   16251.13022212  .00000115  00000-0  11664-4 0  9995
2 20466  82.5009 277.4385 0020431 183.8930 176.2128 14.81236770435594
SL-14 R/B               
1 20511U 90018B   16251.07862505  .00000125  00000-0  13543-4 0  9993
2 20511  82.5226 217.7367 0016579 326.0047  80.9372 14.79897588430191
HST                     
1 20580U 90037B   16251.19232640  .00000965  00000-0  49134-4 0  9991
2 20580  28.4699  77.1325 0002833  13.5595 326.0182 15.08481812247502
SL-16 R/B               
1 20625U 90046B   16250.82640374 -.00000276  00000-0 -11861-3 0  9999
2 20625  71.0002  23.8457 0014413 187.2755 334.5906 14.14601320357764
COSMOS 2084             
1 20663U 90055A   16251.56020644  .00000475  00000-0  58420-4 0  9997
2 20663  62.7919  91.2474 0130886  62.1821 299.2465 14.91320965417656
SL-6 R/B(2)             
1 20666U 90055D   16250.75152152  .00000440  00000-0  54474-4 0  9997
2 20666  62.7851  13.5232 0135897  81.4086 280.2378 14.91687986418896
SL-8 R/B                
1 20775U 90078B   16250.76168275  .00003436  00000-0  17023-3 0  9993
2 20775  82.9270 280.2288 0597381 134.2489 230.9375 14.28904327308263
SL-8 R/B                
1 21088U 91006B   16251.04801262  .00000114  00000-0  99608-4 0  9995
2 21088  82.9406 230.6989 0023479  36.1333  27.0071 13.77035486286637
OKEAN-3                 
1 21397U 91039A   16251.51730429  .00000527  00000-0  48892-4 0  9999
2 21397  82.5210  46.8718 0019574 101.8159 258.5258 14.92287367367625
COSMOS 2151             
1 21422U 91042A   16251.13671083  .00000354  00000-0  32576-4 0  9990
2 21422  82.5028 155.7807 0014834 153.7655 206.4319 14.91685875366300
SL-14 R/B               
1 21423U 91042B   16250.51381309  .00000130  00000-0  14202-4 0  9999
2 21423  82.4927 226.4881 0019230  98.8901 261.4490 14.79650073360633
ERS-1                   
1 21574U 91050A   16250.98195710  .00000112  00000-0  51226-4 0  9992
2 21574  98.4208 197.2327 0034314  81.1763 279.3307 14.37515402316906
ARIANE 40 R/B           
1 21610U 91050F   16250.77199956  .00000086  00000-0  41101-4 0  9997
2 21610  98.6482 298.9542 0004302  77.2454  33.7482 14.40756219319308
INTERCOSMOS 25          
1 21819U 91086A   16250.44156779  .00001035  00000-0  20298-3 0  9995
2 21819  82.5606 233.6198 1524274 330.6215  21.6890 12.04374480 78124
SL-14 R/B               
1 21820U 91086B   16251.54139348  .00000223  00000-0  37844-4 0  9996
2 21820  82.5572 285.1867 1578422 145.3125 226.1945 11.93194840 73077
SL-8 R/B                
1 21876U 92008B   16251.38556060  .00000065  00000-0  50917-4 0  9998
2 21876  82.9291 327.3892 0036195 103.4872 305.4101 13.75585811232500
SL-8 R/B                
1 21938U 92020B   16249.94938362 -.00000017  00000-0 -33433-4 0  9992
2 21938  82.9301 211.4730 0027685 265.2523 154.0797 13.75241818223920
SL-16 R/B               
1 22220U 92076B   16251.57218677 -.00000232  00000-0 -92416-4 0  9995
2 22220  70.9995 294.1344 0013787 334.1025 177.8113 14.16400860230755
SL-16 R/B               
1 22285U 92093B   16251.53673697 -.00000301  00000-0 -13067-3 0  9999
2 22285  71.0200  85.2076 0005404 222.6299 137.4405 14.14997911222550
COSMOS 2228             
1 22286U 92094A   16250.59720863  .00000373  00000-0  38315-4 0  9995
2 22286  82.5193 281.4436 0020159 347.3732  12.6977 14.87509292280339
SL-16 R/B               
1 22566U 93016B   16251.42529367 -.00000287  00000-0 -12384-3 0  9993
2 22566  71.0076 300.4555 0011528 215.4020 144.6338 14.14930570211273
COSMOS 2242             
1 22626U 93024A   16251.15434095  .00000360  00000-0  36912-4 0  9996
2 22626  82.5225 308.6137 0018553 344.9960  15.0704 14.87513419264078
SL-16 R/B               
1 22803U 93059B   16251.45453061 -.00000098  00000-0 -25200-4 0  9996
2 22803  70.9901 125.2126 0014965  96.8471 263.4356 14.16752292188232
ARIANE 40 R/B           
1 22830U 93061H   16251.48272266 -.00000025  00000-0  80450-5 0  9996
2 22830  98.8892 254.3348 0011598  38.1953 114.8284 14.31412112197806
COSMOS 2278             
1 23087U 94023A   16250.47236831 -.00000007  00000-0  20984-4 0  9991
2 23087  71.0530 231.9401 0011359 285.8198  74.1671 14.13731552154398
SL-16 R/B               
1 23088U 94023B   16251.22144383 -.00000025  00000-0  11572-4 0  9999
2 23088  70.9998 155.9581 0003715 205.2338 154.8603 14.14641309155526
SL-16 R/B               
1 23343U 94074B   16250.70817463  .00000020  00000-0  10443-4 0  9997
2 23343  98.1886 278.3995 0005583 259.8045 215.2454 14.76669651174998
SL-16 R/B               
1 23405U 94077B   16250.13235448 -.00000296  00000-0 -12758-3 0  9990
2 23405  70.9816  92.6194 0002453 338.7291  21.3729 14.15184747125324
ERS-2                   
1 23560U 95021A   16251.05612363  .00002952  00000-0  14322-3 0  9997
2 23560  98.5193 200.1843 0003925 163.6493 196.4866 15.19464465132373
ARIANE 40+ R/B          
1 23561U 95021B   16251.10031693  .00000076  00000-0  40623-4 0  9994
2 23561  98.7769 240.0114 0007499  25.2635  16.2973 14.37761226120571
SL-16 R/B               
1 23705U 95058B   16251.13419701  .00000142  00000-0  97559-4 0  9991
2 23705  71.0193 262.8899 0012376 359.1866   0.9235 14.15090045 77148
SL-16 R/B               
1 24298U 96051B   16251.51467330  .00000094  00000-0  77089-4 0  9998
2 24298  70.8400 297.8628 0019321 243.6592 116.2544 14.12429578 31904
ORBVIEW 2 (SEASTAR)     
1 24883U 97037A   16250.21728093  .00000095  00000-0  50321-4 0  9996
2 24883  98.5271 356.9154 0001809 198.1758 161.9362 14.33337227 11228
SL-16 R/B               
1 25400U 98043G   16251.46619884  .00000013  00000-0  23186-4 0  9994
2 25400  98.4465 203.3382 0010755  47.7388 312.4702 14.25389559944798
SL-16 R/B               
1 25407U 98045B   16251.46158346  .00000270  00000-0  16156-3 0  9997
2 25407  71.0101 275.5656 0010034 276.1250  83.8729 14.15751032936168
ISS (ZARYA)             
1 25544U 98067A   16251.62052366  .00005874  00000-0  94787-4 0  9998
2 25544  51.6452   6.7231 0002666 303.9650 136.7472 15.54454321 17811
SL-8 R/B                
1 25723U 99022C   16251.45398737  .00009396  00000-0  17329-3 0  9994
2 25723  48.4170 230.2761 0010640 112.7752  26.7898 15.49683530962586
CZ-4B R/B               
1 25732U 99025C   16251.08027647 -.00000015  00000-0  14896-4 0  9992
2 25732  98.9785 243.5919 0037419 175.5559 226.2099 14.17615348896521
OKEAN-O                 
1 25860U 99039A   16250.85812370  .00000174  00000-0  32690-4 0  9995
2 25860  98.1527 226.4287 0001206  64.8777 295.2557 14.76393022922021
SL-16 R/B               
1 25861U 99039B   16250.78490286  .00000107  00000-0  22004-4 0  9990
2 25861  98.0629 214.9036 0014318 275.1553 146.2184 14.78344430923905
TERRA                   
1 25994U 99068A   16251.21793539  .00000195  00000-0  53279-4 0  9990
2 25994  98.2042 324.3427 0000717 102.5886 257.5393 14.57130221889461
SL-14 R/B               
1 26874U 01032B   16251.36538511  .00035411  00000-0  14978-3 0  9996
2 26874  82.4603 191.5969 0003605 218.1725 141.9290 15.85196877848645
ENVISAT                 
1 27386U 02009A   16251.44600132  .00000016  00000-0  19263-4 0  9994
2 27386  98.2750 301.8857 0001233  82.9080 277.2251 14.37874899760444
IDEFIX & ARIANE 42P R/B 
1 27422U 02021B   16251.47124558 -.00000010  00000-0  12164-4 0  9993
2 27422  98.2301 261.4462 0012268   1.1290 358.9918 14.29248547746296
AQUA                    
1 27424U 02022A   16251.52848624  .00000170  00000-0  47712-4 0  9992
2 27424  98.2037 190.8099 0000612  54.0568  35.1417 14.57114392763119
CZ-4B R/B               
1 27432U 02024C   16251.49757074  .00000006  00000-0  26476-4 0  9999
2 27432  98.9459 218.0783 0051454 112.1035 354.7160 14.14023665738843
MIDORI II (ADEOS-II)    
1 27597U 02056A   16251.04057032  .00000072  00000-0  46174-4 0  9994
2 27597  98.3303 227.2593 0002267  83.2882 276.8557 14.27231419715036
H-2A R/B                
1 27601U 02056E   16250.75152833  .00000057  00000-0  35944-4 0  9998
2 27601  98.4126 321.8085 0073150  56.1367  51.2528 14.31732167717259
